{
  "type": "FeatureCollection",
  "features": [
    {
      "type": "Feature",
      "properties": {
        "norad_id": 57400,
        "name": "TIANMU-1 08",
        "group": "weather",
        "lat": 18.92340874909108,
        "lon": -128.9512054212228,
        "alt_km": 483.26123781869137,
        "timestamp": "2025-12-25T03:55:55.949196+00:00",
        "meta_object_name": "TIANMU-1 08",
        "meta_object_id": "2023-101B",
        "meta_epoch": "2025-12-24T20:56:43.954944",
        "meta_mean_motion": 15.28222165,
        "meta_eccentricity": 0.0006955,
        "meta_inclination": 97.2844,
        "meta_ra_of_asc_node": 48.2507,
        "meta_arg_of_pericenter": 49.5652,
        "meta_mean_anomaly": 310.6193,
        "meta_ephemeris_type": 0,
        "meta_classification_type": "U",
        "meta_norad_cat_id": 57400,
        "meta_element_set_no": 999,
        "meta_rev_at_epoch": 13500,
        "meta_bstar": 0.0002812,
        "meta_mean_motion_dot": 7.666e-05,
        "meta_mean_motion_ddot": 0,
        "tle_line1": "1 57400U 23101B   25358.87273096  .00007666  00000+0  28120-3 0  9998",
        "tle_line2": "2 57400  97.2844  48.2507 0006955  49.5652 310.6193 15.28222165135000"
      },
      "geometry": {
        "type": "Point",
        "coordinates": [
          -128.9512054212228,
          18.92340874909108
        ]
      }
    },
    {
      "type": "Feature",
      "properties": {
        "norad_id": 57401,
        "name": "TIANMU-1 09",
        "group": "weather",
        "lat": -54.239849929894824,
        "lon": -142.18294304695763,
        "alt_km": 492.337370241451,
        "timestamp": "2025-12-25T03:55:55.949225+00:00",
        "meta_object_name": "TIANMU-1 09",
        "meta_object_id": "2023-101C",
        "meta_epoch": "2025-12-24T20:37:20.138304",
        "meta_mean_motion": 15.28257041,
        "meta_eccentricity": 0.0006238,
        "meta_inclination": 97.2801,
        "meta_ra_of_asc_node": 47.7444,
        "meta_arg_of_pericenter": 50.4964,
        "meta_mean_anomaly": 309.6826,
        "meta_ephemeris_type": 0,
        "meta_classification_type": "U",
        "meta_norad_cat_id": 57401,
        "meta_element_set_no": 999,
        "meta_rev_at_epoch": 13500,
        "meta_bstar": 0.00027752,
        "meta_mean_motion_dot": 7.572e-05,
        "meta_mean_motion_ddot": 0,
        "tle_line1": "1 57401U 23101C   25358.85926086  .00007572  00000+0  27752-3 0  9997",
        "tle_line2": "2 57401  97.2801  47.7444 0006238  50.4964 309.6826 15.28257041135001"
      },
      "geometry": {
        "type": "Point",
        "coordinates": [
          -142.18294304695763,
          -54.239849929894824
        ]
      }
    },
    {
      "type": "Feature",
      "properties": {
        "norad_id": 57402,
        "name": "TIANMU-1 10",
        "group": "weather",
        "lat": 45.80917773627817,
        "lon": 41.34017491043249,
        "alt_km": 471.6686684510787,
        "timestamp": "2025-12-25T03:55:55.949247+00:00",
        "meta_object_name": "TIANMU-1 10",
        "meta_object_id": "2023-101D",
        "meta_epoch": "2025-12-24T21:26:41.572608",
        "meta_mean_motion": 15.28249469,
        "meta_eccentricity": 0.0007953,
        "meta_inclination": 97.2882,
        "meta_ra_of_asc_node": 48.6407,
        "meta_arg_of_pericenter": 47.8518,
        "meta_mean_anomaly": 312.3396,
        "meta_ephemeris_type": 0,
        "meta_classification_type": "U",
        "meta_norad_cat_id": 57402,
        "meta_element_set_no": 999,
        "meta_rev_at_epoch": 13500,
        "meta_bstar": 0.00030004,
        "meta_mean_motion_dot": 8.194e-05,
        "meta_mean_motion_ddot": 0,
        "tle_line1": "1 57402U 23101D   25358.89353672  .00008194  00000+0  30004-3 0  9992",
        "tle_line2": "2 57402  97.2882  48.6407 0007953  47.8518 312.3396 15.28249469135008"
      },
      "geometry": {
        "type": "Point",
        "coordinates": [
          41.34017491043249,
          45.80917773627817
        ]
      }
    },
    {
      "type": "Feature",
      "properties": {
        "norad_id": 57490,
        "name": "FENGYUN 3F",
        "group": "weather",
        "lat": 27.73424215715081,
        "lon": -108.122899804806,
        "alt_km": 823.9889288469913,
        "timestamp": "2025-12-25T03:55:55.949266+00:00",
        "meta_object_name": "FENGYUN 3F",
        "meta_object_id": "2023-111A",
        "meta_epoch": "2025-12-24T20:27:17.138016",
        "meta_mean_motion": 14.19896642,
        "meta_eccentricity": 8.29e-05,
        "meta_inclination": 98.7067,
        "meta_ra_of_asc_node": 66.9494,
        "meta_arg_of_pericenter": 117.0504,
        "meta_mean_anomaly": 243.0757,
        "meta_ephemeris_type": 0,
        "meta_classification_type": "U",
        "meta_norad_cat_id": 57490,
        "meta_element_set_no": 999,
        "meta_rev_at_epoch": 12412,
        "meta_bstar": 5.7066e-05,
        "meta_mean_motion_dot": 7.8e-07,
        "meta_mean_motion_ddot": 0,
        "tle_line1": "1 57490U 23111A   25358.85228169  .00000078  00000+0  57066-4 0  9999",
        "tle_line2": "2 57490  98.7067  66.9494 0000829 117.0504 243.0757 14.19896642124127"
      },
      "geometry": {
        "type": "Point",
        "coordinates": [
          -108.122899804806,
          27.73424215715081
        ]
      }
    },
    {
      "type": "Feature",
      "properties": {
        "norad_id": 58584,
        "name": "ARKTIKA-M 2",
        "group": "weather",
        "lat": 49.28372264911362,
        "lon": -42.40458383585479,
        "alt_km": 26310.715843436075,
        "timestamp": "2025-12-25T03:55:55.949280+00:00",
        "meta_object_name": "ARKTIKA-M 2",
        "meta_object_id": "2023-198A",
        "meta_epoch": "2025-12-23T19:04:51.780000",
        "meta_mean_motion": 2.00602438,
        "meta_eccentricity": 0.68658211,
        "meta_inclination": 63.2256,
        "meta_ra_of_asc_node": 173.6885,
        "meta_arg_of_pericenter": 268.0594,
        "meta_mean_anomaly": 18.8414,
        "meta_ephemeris_type": 0,
        "meta_classification_type": "U",
        "meta_norad_cat_id": 58584,
        "meta_element_set_no": 999,
        "meta_rev_at_epoch": 1480,
        "meta_bstar": 0,
        "meta_mean_motion_dot": 2.16e-06,
        "meta_mean_motion_ddot": 0,
        "tle_line1": "1 58584U 23198A   25357.79504375  .00000216  00000+0  00000+0 0  9992",
        "tle_line2": "2 58584  63.2256 173.6885 6865821 268.0594  18.8414  2.00602438 14808"
      },
      "geometry": {
        "type": "Point",
        "coordinates": [
          -42.40458383585479,
          49.28372264911362
        ]
      }
    },
    {
      "type": "Feature",
      "properties": {
        "norad_id": 58645,
        "name": "TIANMU-1 11",
        "group": "weather",
        "lat": 68.36762979907635,
        "lon": -0.4521501205050432,
        "alt_km": 490.0748244967044,
        "timestamp": "2025-12-25T03:55:55.949292+00:00",
        "meta_object_name": "TIANMU-1 11",
        "meta_object_id": "2023-205A",
        "meta_epoch": "2025-12-24T21:19:39.179424",
        "meta_mean_motion": 15.24741672,
        "meta_eccentricity": 0.0007558,
        "meta_inclination": 97.3596,
        "meta_ra_of_asc_node": 18.2983,
        "meta_arg_of_pericenter": 258.3407,
        "meta_mean_anomaly": 101.6983,
        "meta_ephemeris_type": 0,
        "meta_classification_type": "U",
        "meta_norad_cat_id": 58645,
        "meta_element_set_no": 999,
        "meta_rev_at_epoch": 11094,
        "meta_bstar": 0.00026411,
        "meta_mean_motion_dot": 6.474e-05,
        "meta_mean_motion_ddot": 0,
        "tle_line1": "1 58645U 23205A   25358.88864791  .00006474  00000+0  26411-3 0  9991",
        "tle_line2": "2 58645  97.3596  18.2983 0007558 258.3407 101.6983 15.24741672110946"
      },
      "geometry": {
        "type": "Point",
        "coordinates": [
          -0.4521501205050432,
          68.36762979907635
        ]
      }
    },
    {
      "type": "Feature",
      "properties": {
        "norad_id": 58646,
        "name": "TIANMU-1 12",
        "group": "weather",
        "lat": -80.04119639981316,
        "lon": 65.76191642360311,
        "alt_km": 496.18284643910374,
        "timestamp": "2025-12-25T03:55:55.949303+00:00",
        "meta_object_name": "TIANMU-1 12",
        "meta_object_id": "2023-205B",
        "meta_epoch": "2025-12-24T20:25:16.267008",
        "meta_mean_motion": 15.24628593,
        "meta_eccentricity": 0.0005975,
        "meta_inclination": 97.3585,
        "meta_ra_of_asc_node": 18.0626,
        "meta_arg_of_pericenter": 236.2339,
        "meta_mean_anomaly": 123.833,
        "meta_ephemeris_type": 0,
        "meta_classification_type": "U",
        "meta_norad_cat_id": 58646,
        "meta_element_set_no": 999,
        "meta_rev_at_epoch": 11092,
        "meta_bstar": 0.00026256,
        "meta_mean_motion_dot": 6.412e-05,
        "meta_mean_motion_ddot": 0,
        "tle_line1": "1 58646U 23205B   25358.85088272  .00006412  00000+0  26256-3 0  9990",
        "tle_line2": "2 58646  97.3585  18.0626 0005975 236.2339 123.8330 15.24628593110923"
      },
      "geometry": {
        "type": "Point",
        "coordinates": [
          65.76191642360311,
          -80.04119639981316
        ]
      }
    }
  ]
}